IRIDIUM 921             
1 24873U 97034E   24207.63932685  .00033019  00000+0  76779-3 0  9998
2 24873  86.3776 269.0365 0006031 109.0496 251.1413 15.42157892481388
IRIDIUM 26              
1 24903U 97043A   24207.15497667  .00000687  00000+0  22792-3 0  9996
2 24903  86.3932 247.8215 0002471  92.9238 267.2242 14.36449941409785
IRIDIUM 22              
1 24907U 97043E   24207.65832215  .00000666  00000+0  22554-3 0  9990
2 24907  86.3935 250.8784 0002229  92.2528 267.8923 14.35337307409911
DUMMY MASS 1            
1 24925U 97048A   24207.23283907  .00000880  00000+0  96830-4 0  9994
2 24925  86.3342 286.4098 0005388 207.3914 152.7027 14.86302607456553
DUMMY MASS 2            
1 24926U 97048B   24207.27565801  .00000864  00000+0  95638-4 0  9992
2 24926  86.3343 287.9404 0005797 223.3913 136.6855 14.86060126456347
IRIDIUM 29              
1 24944U 97051A   24207.23099649  .00000752  00000+0  25348-3 0  9990
2 24944  86.3945 280.9544 0002004  96.9122 263.2303 14.35790102406345
IRIDIUM 33              
1 24946U 97051C   24207.29363855  .00000564  00000+0  19326-3 0  9991
2 24946  86.3859 280.1771 0009930  71.4678 288.7596 14.34429121405876
IRIDIUM 28              
1 24948U 97051E   24207.27929992  .00000806  00000+0  26679-3 0  9999
2 24948  86.3948 278.6347 0002659  91.3068 268.8434 14.36745318406897
